start=new Date('2021-09-23T00:00:00.000Z').valueOf();
sats=[{"PERIOD":"95.592","MEAN_ANOMALY":"230.0397","EPHEMERIS_TYPE":"0","RCS_SIZE":"LARGE","APOAPSIS":"548.204","SEMIMAJOR_AXIS":"6925.354","ELEMENT_SET_NO":"999","GP_ID":"185267916","ECCENTRICITY":"0.00014230","LAUNCH_DATE":"2021-03-14","BSTAR":"-0.00001840700000","CLASSIFICATION_TYPE":"U","EPOCH":"2021-09-22T14:21:54.284544","PERIAPSIS":"546.233","DECAY_DATE":null,"COUNTRY_CODE":"US","MEAN_MOTION":"15.06398233","RA_OF_ASC_NODE":"14.9030","FILE":"3123736","OBJECT_ID":"2021-021AT","TLE_LINE2":"2 47901  53.0498  14.9030 0001423 130.0717 230.0397 15.06398233 30780","NORAD_CAT_ID":"47901","TIME_SYSTEM":"UTC","MEAN_MOTION_DDOT":"0.0000000000000","OBJECT_TYPE":"PAYLOAD","REV_AT_EPOCH":"3078","MEAN_MOTION_DOT":"-0.00000556","CENTER_NAME":"EARTH","OBJECT_NAME":"STARLINK-2361","MEAN_ELEMENT_THEORY":"SGP4","SITE":"AFETR","REF_FRAME":"TEME","TLE_LINE1":"1 47901U 21021AT  21265.59854496 -.00000556  00000-0 -18407-4 0  9995","INCLINATION":"53.0498","ARG_OF_PERICENTER":"130.0717"},{"MEAN_MOTION_DOT":"0.00001225","REV_AT_EPOCH":"3062","CENTER_NAME":"EARTH","OBJECT_NAME":"STARLINK-2362","MEAN_ELEMENT_THEORY":"SGP4","REF_FRAME":"TEME","SITE":"AFETR","TLE_LINE1":"1 47902U 21021AU  21265.65662395  .00001225  00000-0  10110-3 0  9992","INCLINATION":"53.0562","ARG_OF_PERICENTER":"102.3957","OBJECT_ID":"2021-021AU","NORAD_CAT_ID":"47902","TLE_LINE2":"2 47902  53.0562  34.6164 0001246 102.3957 257.7172 15.06393742 30621","TIME_SYSTEM":"UTC","MEAN_MOTION_DDOT":"0.0000000000000","OBJECT_TYPE":"PAYLOAD","LAUNCH_DATE":"2021-03-14","BSTAR":"0.00010110000000","CLASSIFICATION_TYPE":"U","EPOCH":"2021-09-22T15:45:32.309280","PERIAPSIS":"546.370","DECAY_DATE":null,"COUNTRY_CODE":"US","MEAN_MOTION":"15.06393742","RA_OF_ASC_NODE":"34.6164","FILE":"3123736","PERIOD":"95.593","MEAN_ANOMALY":"257.7172","EPHEMERIS_TYPE":"0","APOAPSIS":"548.096","RCS_SIZE":"LARGE","SEMIMAJOR_AXIS":"6925.368","ELEMENT_SET_NO":"999","ECCENTRICITY":"0.00012460","GP_ID":"185269167"},{"TLE_LINE2":"2 47903  53.0577  14.5175 0001066 138.9810 221.1259 15.06395230 31143","NORAD_CAT_ID":"47903","OBJECT_ID":"2021-021AV","OBJECT_TYPE":"PAYLOAD","TIME_SYSTEM":"UTC","MEAN_MOTION_DDOT":"0.0000000000000","MEAN_ELEMENT_THEORY":"SGP4","OBJECT_NAME":"STARLINK-2363","CENTER_NAME":"EARTH","REV_AT_EPOCH":"3114","MEAN_MOTION_DOT":"0.00001212","ARG_OF_PERICENTER":"138.9810","INCLINATION":"53.0577","TLE_LINE1":"1 47903U 21021AV  21265.68058710  .00001212  00000-0  10025-3 0  9997","SITE":"AFETR","REF_FRAME":"TEME","APOAPSIS":"547.966","RCS_SIZE":"LARGE","PERIOD":"95.592","EPHEMERIS_TYPE":"0","MEAN_ANOMALY":"221.1259","ELEMENT_SET_NO":"999","ECCENTRICITY":"0.00010660","GP_ID":"185269395","SEMIMAJOR_AXIS":"6925.363","PERIAPSIS":"546.490","EPOCH":"2021-09-22T16:20:02.725440","DECAY_DATE":null,"COUNTRY_CODE":"US","MEAN_MOTION":"15.06395230","LAUNCH_DATE":"2021-03-14","CLASSIFICATION_TYPE":"U","BSTAR":"0.00010025000000","RA_OF_ASC_NODE":"14.5175","FILE":"3123736"},{"PERIAPSIS":"546.372","EPOCH":"2021-09-22T14:39:11.504448","COUNTRY_CODE":"US","DECAY_DATE":null,"MEAN_MOTION":"15.06392592","LAUNCH_DATE":"2021-03-14","CLASSIFICATION_TYPE":"U","BSTAR":"0.00008670700000","RA_OF_ASC_NODE":"14.8278","FILE":"3123736","APOAPSIS":"548.101","RCS_SIZE":"LARGE","PERIOD":"95.593","EPHEMERIS_TYPE":"0","MEAN_ANOMALY":"235.9546","ELEMENT_SET_NO":"999","ECCENTRICITY":"0.00012480","GP_ID":"185267667","SEMIMAJOR_AXIS":"6925.371","MEAN_ELEMENT_THEORY":"SGP4","OBJECT_NAME":"STARLINK-2364","CENTER_NAME":"EARTH","REV_AT_EPOCH":"3077","MEAN_MOTION_DOT":"0.00001010","ARG_OF_PERICENTER":"124.1561","INCLINATION":"53.0568","TLE_LINE1":"1 47904U 21021AW  21265.61054982  .00001010  00000-0  86707-4 0  9995","REF_FRAME":"TEME","SITE":"AFETR","TLE_LINE2":"2 47904  53.0568  14.8278 0001248 124.1561 235.9546 15.06392592 30771","NORAD_CAT_ID":"47904","OBJECT_ID":"2021-021AW","OBJECT_TYPE":"PAYLOAD","TIME_SYSTEM":"UTC","MEAN_MOTION_DDOT":"0.0000000000000"},{"FILE":"3123736","RA_OF_ASC_NODE":"14.8458","CLASSIFICATION_TYPE":"U","BSTAR":"0.00009032400000","LAUNCH_DATE":"2021-03-14","DECAY_DATE":null,"MEAN_MOTION":"15.06395003","COUNTRY_CODE":"US","PERIAPSIS":"546.338","EPOCH":"2021-09-22T14:33:53.498880","SEMIMAJOR_AXIS":"6925.364","GP_ID":"185268416","ECCENTRICITY":"0.00012870","ELEMENT_SET_NO":"999","EPHEMERIS_TYPE":"0","MEAN_ANOMALY":"222.3224","PERIOD":"95.592","RCS_SIZE":"LARGE","APOAPSIS":"548.120","TLE_LINE1":"1 47905U 21021AX  21265.60686920  .00001064  00000-0  90324-4 0  9997","SITE":"AFETR","REF_FRAME":"TEME","ARG_OF_PERICENTER":"137.7864","INCLINATION":"53.0579","CENTER_NAME":"EARTH","MEAN_MOTION_DOT":"0.00001064","REV_AT_EPOCH":"3090","MEAN_ELEMENT_THEORY":"SGP4","OBJECT_NAME":"STARLINK-2365","MEAN_MOTION_DDOT":"0.0000000000000","TIME_SYSTEM":"UTC","OBJECT_TYPE":"PAYLOAD","OBJECT_ID":"2021-021AX","NORAD_CAT_ID":"47905","TLE_LINE2":"2 47905  53.0579  14.8458 0001287 137.7864 222.3224 15.06395003 30901"},{"DECAY_DATE":null,"COUNTRY_CODE":"US","MEAN_MOTION":"15.71520403","PERIAPSIS":"348.401","EPOCH":"2021-09-22T13:44:34.922688","CLASSIFICATION_TYPE":"U","BSTAR":"0.00012415000000","LAUNCH_DATE":"2021-03-14","RA_OF_ASC_NODE":"348.6361","FILE":"3123736","RCS_SIZE":"LARGE","APOAPSIS":"360.705","EPHEMERIS_TYPE":"0","MEAN_ANOMALY":"48.7614","PERIOD":"91.631","ECCENTRICITY":"0.00091380","GP_ID":"185268668","ELEMENT_SET_NO":"999","SEMIMAJOR_AXIS":"6732.688","MEAN_ELEMENT_THEORY":"SGP4","OBJECT_NAME":"STARLINK-2366","CENTER_NAME":"EARTH","REV_AT_EPOCH":"3126","MEAN_MOTION_DOT":"0.00015678","ARG_OF_PERICENTER":"311.2615","INCLINATION":"53.0535","TLE_LINE1":"1 47906U 21021AY  21265.57262642  .00015678  00000-0  12415-3 0  9995","REF_FRAME":"TEME","SITE":"AFETR","NORAD_CAT_ID":"47906","TLE_LINE2":"2 47906  53.0535 348.6361 0009138 311.2615  48.7614 15.71520403 31260","OBJECT_ID":"2021-021AY","OBJECT_TYPE":"PAYLOAD","MEAN_MOTION_DDOT":"0.0000000000000","TIME_SYSTEM":"UTC"},{"REF_FRAME":"TEME","SITE":"AFETR","TLE_LINE1":"1 47907U 21021AZ  21265.61607963  .00001391  00000-0  11229-3 0  9999","INCLINATION":"53.0577","ARG_OF_PERICENTER":"111.8043","REV_AT_EPOCH":"3047","MEAN_MOTION_DOT":"0.00001391","CENTER_NAME":"EARTH","OBJECT_NAME":"STARLINK-2367","MEAN_ELEMENT_THEORY":"SGP4","TIME_SYSTEM":"UTC","MEAN_MOTION_DDOT":"0.0000000000000","OBJECT_TYPE":"PAYLOAD","OBJECT_ID":"2021-021AZ","TLE_LINE2":"2 47907  53.0577  34.8043 0001625 111.8043 248.3119 15.06397187 30479","NORAD_CAT_ID":"47907","FILE":"3123736","RA_OF_ASC_NODE":"34.8043","LAUNCH_DATE":"2021-03-14","BSTAR":"0.00011229000000","CLASSIFICATION_TYPE":"U","EPOCH":"2021-09-22T14:47:09.280032","PERIAPSIS":"546.097","DECAY_DATE":null,"MEAN_MOTION":"15.06397187","COUNTRY_CODE":"US","SEMIMAJOR_AXIS":"6925.357","ELEMENT_SET_NO":"999","GP_ID":"185268896","ECCENTRICITY":"0.00016250","PERIOD":"95.592","MEAN_ANOMALY":"248.3119","EPHEMERIS_TYPE":"0","RCS_SIZE":"LARGE","APOAPSIS":"548.348"},{"FILE":"3123736","RA_OF_ASC_NODE":"34.7686","DECAY_DATE":null,"COUNTRY_CODE":"US","MEAN_MOTION":"15.06396061","PERIAPSIS":"546.221","EPOCH":"2021-09-22T14:57:46.389312","CLASSIFICATION_TYPE":"U","BSTAR":"0.00008426100000","LAUNCH_DATE":"2021-03-14","GP_ID":"185268167","ECCENTRICITY":"0.00014500","ELEMENT_SET_NO":"999","SEMIMAJOR_AXIS":"6925.361","RCS_SIZE":"LARGE","APOAPSIS":"548.230","EPHEMERIS_TYPE":"0","MEAN_ANOMALY":"247.6280","PERIOD":"95.592","ARG_OF_PERICENTER":"112.4863","INCLINATION":"53.0573","TLE_LINE1":"1 47908U 21021BA  21265.62345358  .00000974  00000-0  84261-4 0  9991","REF_FRAME":"TEME","SITE":"AFETR","MEAN_ELEMENT_THEORY":"SGP4","OBJECT_NAME":"STARLINK-2368","CENTER_NAME":"EARTH","MEAN_MOTION_DOT":"0.00000974","REV_AT_EPOCH":"3050","OBJECT_TYPE":"PAYLOAD","MEAN_MOTION_DDOT":"0.0000000000000","TIME_SYSTEM":"UTC","TLE_LINE2":"2 47908  53.0573  34.7686 0001450 112.4863 247.6280 15.06396061 30506","NORAD_CAT_ID":"47908","OBJECT_ID":"2021-021BA"},{"FILE":"3123736","RA_OF_ASC_NODE":"24.4035","LAUNCH_DATE":"2021-03-14","BSTAR":"0.00009664300000","CLASSIFICATION_TYPE":"U","EPOCH":"2021-09-22T16:55:51.230784","PERIAPSIS":"546.132","COUNTRY_CODE":"US","DECAY_DATE":null,"MEAN_MOTION":"15.06399640","SEMIMAJOR_AXIS":"6925.350","ELEMENT_SET_NO":"999","ECCENTRICITY":"0.00015630","GP_ID":"185267917","PERIOD":"95.592","MEAN_ANOMALY":"234.6044","EPHEMERIS_TYPE":"0","APOAPSIS":"548.297","RCS_SIZE":"LARGE","REF_FRAME":"TEME","SITE":"AFETR","TLE_LINE1":"1 47909U 21021BB  21265.70545406  .00001158  00000-0  96643-4 0  9999","INCLINATION":"53.0579","ARG_OF_PERICENTER":"125.5091","MEAN_MOTION_DOT":"0.00001158","REV_AT_EPOCH":"3082","CENTER_NAME":"EARTH","OBJECT_NAME":"STARLINK-2369","MEAN_ELEMENT_THEORY":"SGP4","TIME_SYSTEM":"UTC","MEAN_MOTION_DDOT":"0.0000000000000","OBJECT_TYPE":"PAYLOAD","OBJECT_ID":"2021-021BB","NORAD_CAT_ID":"47909","TLE_LINE2":"2 47909  53.0579  24.4035 0001563 125.5091 234.6044 15.06399640 30825"},{"SEMIMAJOR_AXIS":"6925.342","ELEMENT_SET_NO":"999","ECCENTRICITY":"0.00012350","GP_ID":"185269168","PERIOD":"95.592","MEAN_ANOMALY":"248.1810","EPHEMERIS_TYPE":"0","APOAPSIS":"548.062","RCS_SIZE":"LARGE","RA_OF_ASC_NODE":"24.8318","FILE":"3123736","LAUNCH_DATE":"2021-03-14","BSTAR":"0.00009009700000","CLASSIFICATION_TYPE":"U","EPOCH":"2021-09-22T14:36:28.958400","PERIAPSIS":"546.351","MEAN_MOTION":"15.06402234","DECAY_DATE":null,"COUNTRY_CODE":"US","TIME_SYSTEM":"UTC","MEAN_MOTION_DDOT":"0.0000000000000","OBJECT_TYPE":"PAYLOAD","OBJECT_ID":"2021-021BC","NORAD_CAT_ID":"47910","TLE_LINE2":"2 47910  53.0563  24.8318 0001235 111.9310 248.1810 15.06402234 30664","SITE":"AFETR","REF_FRAME":"TEME","TLE_LINE1":"1 47910U 21021BC  21265.60866850  .00001061  00000-0  90097-4 0  9999","INCLINATION":"53.0563","ARG_OF_PERICENTER":"111.9310","MEAN_MOTION_DOT":"0.00001061","REV_AT_EPOCH":"3066","CENTER_NAME":"EARTH","OBJECT_NAME":"STARLINK-2370","MEAN_ELEMENT_THEORY":"SGP4"}];
